NORAD_CAT_ID,OBJECT_NAME,OBJECT_TYPE,EPOCH,MEAN_MOTION,ECCENTRICITY,INCLINATION,RA_OF_ASC_NODE,ARG_OF_PERICENTER,MEAN_ANOMALY,BSTAR,MEAN_MOTION_DOT,MEAN_MOTION_DDOT,TLE_LINE0,TLE_LINE1,TLE_LINE2,SEMIMAJOR_AXIS,PERIOD,APOGEE,PERIGEE,DECAYED
49759.0,STARLINK-3204,PAYLOAD,2021-12-20 20:38:49,15.40486021,0.0001702,53.2146,232.8895,48.7733,311.3419,0.00015228,5.869e-05,0.0,0 STARLINK-3204,1 49759U 21115AM  21354.86029811  .00005869  00000-0  15228-3 0  9993,2 49759  53.2146 232.8895 0001702  48.7733 311.3419 15.40486021  2911,6822.811,93.477,445.837,443.515,0.0
49759.0,STARLINK-3204,PAYLOAD,2021-12-20 22:00:01,15.40523445,0.0001702,53.2143,232.6246,45.1171,267.9231,-0.00079771,-0.00033134,0.0,0 STARLINK-3204,1 49759U 21115AM  21354.91668981 -.00033134  00000-0 -79771-3 0  9997,2 49759  53.2143 232.6246 0001702  45.1171 267.9231 15.40523445  4038,6822.7,93.475,445.727,443.404,0.0
49759.0,STARLINK-3204,PAYLOAD,2021-12-21 14:00:01,15.40411651,0.0001699,53.2139,229.4816,52.5894,359.6338,-0.00019028,-8.207e-05,0.0,0 STARLINK-3204,1 49759U 21115AM  21355.58334491 -.00008207  00000-0 -19028-3 0  9999,2 49759  53.2139 229.4816 0001699  52.5894 359.6338 15.40411651  4132,6823.03,93.482,446.055,443.736,0.0
49759.0,STARLINK-3204,PAYLOAD,2021-12-21 22:00:00,15.40399946,0.0001842,53.2136,227.913,46.9223,54.8184,0.00031676,0.00012618,0.0,0 STARLINK-3204,1 49759U 21115AM  21355.91667824  .00012618  00000-0  31676-3 0  9997,2 49759  53.2136 227.9130 0001842  46.9223  54.8184 15.40399946  3385,6823.065,93.482,446.187,443.673,0.0
49759.0,STARLINK-3204,PAYLOAD,2021-12-22 12:00:00,15.40433372,0.0001730999999999,53.2154,225.1628,51.735,46.6974,-0.00050815,-0.00021223,0.0,0 STARLINK-3204,1 49759U 21115AM  21356.50001157 -.00021223  00000-0 -50815-3 0  9994,2 49759  53.2154 225.1628 0001731  51.7350  46.6974 15.40433372  4276,6822.965999999999,93.48,446.012,443.65,0.0
49759.0,STARLINK-3204,PAYLOAD,2021-12-22 14:00:01,15.40414984,0.000175,53.2156,224.7698,53.4073,147.4167,0.00053836,0.00021765,0.0,0 STARLINK-3204,1 49759U 21115AM  21356.58334491  .00021765  00000-0  53836-3 0  9997,2 49759  53.2156 224.7698 0001750  53.4073 147.4167 15.40414984  3486,6823.021,93.481,446.08,443.692,0.0
49759.0,STARLINK-3204,PAYLOAD,2021-12-22 20:00:01,15.40480628,0.0001738,53.2131,223.5935,47.7892,100.2105,-0.0011182,-0.00046141,0.0,0 STARLINK-3204,1 49759U 21115AM  21356.83334491 -.00046141  00000-0 -11182-2 0  9999,2 49759  53.2131 223.5935 0001738  47.7892 100.2105 15.40480628  4322,6822.8269999999975,93.477,445.878,443.506,0.0
49759.0,STARLINK-3204,PAYLOAD,2021-12-22 22:00:00,15.40461397,0.0001802,53.2131,223.2013,46.0079,204.3972,-0.00026348,-0.00011223,0.0,0 STARLINK-3204,1 49759U 21115AM  21356.91667824 -.00011223  00000-0 -26348-3 0  9991,2 49759  53.2131 223.2013 0001802  46.0079 204.3972 15.40461397  3539,6822.884,93.478,445.978,443.519,0.0
49759.0,STARLINK-3204,PAYLOAD,2021-12-23 04:00:01,15.40468421,0.0001738,53.2134,222.0233,42.7301,154.924,-4.8352e-05,-2.392e-05,0.0,0 STARLINK-3204,1 49759U 21115AM  21357.16668981 -.00002392  00000-0 -48352-4 0  9991,2 49759  53.2134 222.0233 0001738  42.7301 154.9240 15.40468421  4378,6822.863,93.478,445.914,443.542,0.0
49759.0,STARLINK-3204,PAYLOAD,2021-12-23 14:00:01,15.40451779,0.0001516,53.2146,220.058,49.3034,300.2852,0.0011757,0.00048236,0.0,0 STARLINK-3204,1 49759U 21115AM  21357.58334491  .00048236  00000-0  11757-2 0  9995,2 49759  53.2146 220.0580 0001516  49.3034 300.2852 15.40451779  3635,6822.9119999999975,93.479,445.811,443.74300000000005,0.0
49759.0,STARLINK-3204,PAYLOAD,2021-12-23 22:00:00,15.40471959,0.0001729,53.2153,218.4891,45.0808,354.1015,-0.0008457,-0.00035035,0.0,0 STARLINK-3204,1 49759U 21115AM  21357.91667824 -.00035035  00000-0 -84570-3 0  9990,2 49759  53.2153 218.4891 0001729  45.0808 354.1015 15.40471959  3650,6822.852,93.478,445.897,443.538,0.0
49759.0,STARLINK-3204,PAYLOAD,2021-12-24 06:00:00,15.40462529,0.0001688,53.2153,216.9179,43.7944,44.9605,-0.0013446,-0.00055302,0.0,0 STARLINK-3204,1 49759U 21115AM  21358.25001157 -.00055302  00000-0 -13446-2 0  9991,2 49759  53.2153 216.9179 0001688  43.7944  44.9605 15.40462529  4543,6822.88,93.478,445.897,443.594,0.0
49759.0,STARLINK-3204,PAYLOAD,2021-12-24 14:00:01,15.40411757,0.0001635,53.2158,215.346,52.3566,85.9606,0.00099325,0.00040593,0.0,0 STARLINK-3204,1 49759U 21115AM  21358.58334491  .00040593  00000-0  99325-3 0  9992,2 49759  53.2158 215.3460 0001635  52.3566  85.9606 15.40411757  3612,6823.03,93.481,446.011,443.78,0.0
49759.0,STARLINK-3204,PAYLOAD,2021-12-24 22:00:00,15.40429592,0.0001838,53.2159,213.7774,45.9945,141.8725,0.00049111,0.00019824,0.0,0 STARLINK-3204,1 49759U 21115AM  21358.91667824  .00019824  00000-0  49111-3 0  9999,2 49759  53.2159 213.7774 0001838  45.9945 141.8725 15.40429592  4641,6822.978,93.48,446.097,443.588,0.0
49759.0,STARLINK-3204,PAYLOAD,2021-12-25 06:00:00,15.40461918,0.0001551,53.2173,212.2068,54.5761,182.9076,-8.1929e-05,-3.771e-05,0.0,0 STARLINK-3204,1 49759U 21115AM  21359.25001157 -.00003771  00000-0 -81929-4 0  9998,2 49759  53.2173 212.2068 0001551  54.5761 182.9076 15.40461918  4699,6822.882,93.478,445.805,443.689,0.0
49759.0,STARLINK-3204,PAYLOAD,2021-12-25 14:00:01,15.40456983,0.0001723,53.2165,210.6343,51.8075,235.1998,0.0010736,0.00043995,0.0,0 STARLINK-3204,1 49759U 21115AM  21359.58334491  .00043995  00000-0  10736-2 0  9990,2 49759  53.2165 210.6343 0001723  51.8075 235.1998 15.40456983  4754,6822.897,93.479,445.937,443.586,0.0
49759.0,STARLINK-3204,PAYLOAD,2021-12-25 22:00:00,15.40483553,0.0001915,53.2166,209.0657,45.5282,291.0795,-0.00077172,-0.00032031,0.0,0 STARLINK-3204,1 49759U 21115AM  21359.91667824 -.00032031  00000-0 -77172-3 0  9995,2 49759  53.2166 209.0657 0001915  45.5282 291.0795 15.40483553  3633,6822.818,93.477,445.99,443.377,0.0
49759.0,STARLINK-3204,PAYLOAD,2021-12-26 06:00:02,15.40484954,0.0001783,53.2167,207.4941,43.0621,343.2097,-0.00075039,-0.00031161,0.0,0 STARLINK-3204,1 49759U 21115AM  21360.25002315 -.00031161  00000-0 -75039-3 0  9995,2 49759  53.2167 207.4941 0001783  43.0621 343.2097 15.40484954  4851,6822.814,93.477,445.896,443.463,0.0
49759.0,STARLINK-3204,PAYLOAD,2021-12-26 14:00:01,15.40460346,0.0001703,53.217,205.9226,47.6086,28.201,0.00014404,5.524e-05,0.0,0 STARLINK-3204,1 49759U 21115AM  21360.58334491  .00005524  00000-0  14404-3 0  9995,2 49759  53.2170 205.9226 0001703  47.6086  28.2010 15.40460346  3618,6822.887,93.479,445.914,443.59,0.0
49759.0,STARLINK-3204,PAYLOAD,2021-12-26 22:00:00,15.40451716,0.0001915,53.2169,204.3541,41.9152,83.4873,0.00046659,0.00018825,0.0,0 STARLINK-3204,1 49759U 21115AM  21360.91667824  .00018825  00000-0  46659-3 0  9996,2 49759  53.2169 204.3541 0001915  41.9152  83.4873 15.40451716  3638,6822.9119999999975,93.479,446.084,443.471,0.0
49759.0,STARLINK-3204,PAYLOAD,2021-12-27 06:00:00,15.4048416,0.0001869,53.2166,202.7825,43.7712,131.213,-0.0015213,-0.00062504,0.0,0 STARLINK-3204,1 49759U 21115AM  21361.25001157 -.00062504  00000-0 -15213-2 0  9991,2 49759  53.2166 202.7825 0001869  43.7712 131.2130 15.40484160  5002,6822.816,93.477,445.957,443.406,0.0
49759.0,STARLINK-3204,PAYLOAD,2021-12-27 14:00:01,15.40450102,0.0001842,53.2166,201.2114,50.7824,173.7823,0.00040677,0.00016354,0.0,0 STARLINK-3204,1 49759U 21115AM  21361.58334491  .00016354  00000-0  40677-3 0  9990,2 49759  53.2166 201.2114 0001842  50.7824 173.7823 15.40450102  3636,6822.917,93.479,446.039,443.525,0.0
49759.0,STARLINK-3204,PAYLOAD,2021-12-27 22:00:00,15.40441068,0.0002071,53.2164,199.6428,45.3958,228.7524,0.00061335,0.00024885,0.0,0 STARLINK-3204,1 49759U 21115AM  21361.91667824  .00024885  00000-0  61335-3 0  9998,2 49759  53.2164 199.6428 0002071  45.3958 228.7524 15.40441068  5109,6822.944,93.48,446.222,443.396,0.0
49759.0,STARLINK-3204,PAYLOAD,2021-12-28 14:00:01,15.40478211,0.0001857,53.216,196.5001,51.8821,321.4398,0.00029977,0.0001195,0.0,0 STARLINK-3204,1 49759U 21115AM  21362.58334491  .00011950  00000-0  29977-3 0  9998,2 49759  53.2160 196.5001 0001857  51.8821 321.4398 15.40478211  3669,6822.834,93.477,445.966,443.432,0.0
49759.0,STARLINK-3204,PAYLOAD,2021-12-28 22:00:00,15.40477765,0.0002004,53.2158,194.9314,45.7333,17.2039,-0.0002844,-0.00012087,0.0,0 STARLINK-3204,1 49759U 21115AM  21362.91667824 -.00012087  00000-0 -28440-3 0  9992,2 49759  53.2158 194.9314 0002004  45.7333  17.2039 15.40477765  3632,6822.835,93.477,446.068,443.333,0.0
49759.0,STARLINK-3204,PAYLOAD,2021-12-29 06:00:02,15.40470131,0.0001805,53.2156,193.3593,46.8342,65.7744,-0.00031802,-0.00013462,0.0,0 STARLINK-3204,1 49759U 21115AM  21363.25002315 -.00013462  00000-0 -31802-3 0  9992,2 49759  53.2156 193.3593 0001805  46.8342  65.7744 15.40470131  5310,6822.858,93.478,445.954,443.491,0.0
49759.0,STARLINK-3204,PAYLOAD,2021-12-29 14:00:01,15.40482848,0.0001764999999999,53.2158,191.7884,50.8793,111.3155,-0.00032058,-0.00013573,0.0,0 STARLINK-3204,1 49759U 21115AM  21363.58335648 -.00013573  00000-0 -32058-3 0  9993,2 49759  53.2158 191.7884 0001765  50.8793 111.3155 15.40482848  3643,6822.82,93.477,445.889,443.481,0.0
49759.0,STARLINK-3204,PAYLOAD,2021-12-29 21:05:05,15.40475726,0.0001864,53.2164,190.3973,50.7208,309.3963,0.00010777,4.033e-05,0.0,0 STARLINK-3204,1 49759U 21115AM  21363.87854026  .00004033  00000-0  10777-3 0  9994,2 49759  53.2164 190.3973 0001864  50.7208 309.3963 15.40475726  4301,6822.840999999999,93.478,445.978,443.435,0.0
49759.0,STARLINK-3204,PAYLOAD,2021-12-30 06:00:00,15.40464125,0.0001763,53.2158,188.6475,44.4256,216.8981,-0.0002898,-0.00012303,0.0,0 STARLINK-3204,1 49759U 21115AM  21364.25001157 -.00012303  00000-0 -28980-3 0  9992,2 49759  53.2158 188.6475 0001763  44.4256 216.8981 15.40464125  5463,6822.876,93.478,445.943,443.538,0.0
